{"type": "FeatureCollection", "features": [ {"type": "Feature", "properties": {"norad_id": 34792, "name": "COSMOS 2251 DEB", "group": "cosmos-2251-debris", "lat": -60.62531590484502, "lon": 116.95622405077202, "alt_km": 707.4283120158661, "timestamp": "2025-12-24T09:46:31.400131+00:00", "meta": {"OBJECT_NAME": "COSMOS 2251 DEB", "OBJECT_ID": "1993-036AAV", "EPOCH": "2025-12-24T04:18:06.926976", "MEAN_MOTION": 14.56048165, "ECCENTRICITY": 0.0012384, "INCLINATION": 74.0179, "RA_OF_ASC_NODE": 147.9963, "ARG_OF_PERICENTER": 242.8366, "MEAN_ANOMALY": 297.1203, "EPHEMERIS_TYPE": 0, "CLASSIFICATION_TYPE": "U", "NORAD_CAT_ID": 34792, "ELEMENT_SET_NO": 999, "REV_AT_EPOCH": 87816, "BSTAR": 0.0011601, "MEAN_MOTION_DOT": 5.09e-05, "MEAN_MOTION_DDOT": 0}, "tle": {"line1": "1 34792U 93036AAV 25358.17924684  .00005090  00000+0  11601-2 0  9994", "line2": "2 34792  74.0179 147.9963 0012384 242.8366 297.1203 14.56048165878167"}}, "geometry": {"type": "Point", "coordinates": [116.95622405077202, -60.62531590484502]}}, {"type": "Feature", "properties": {"norad_id": 34793, "name": "COSMOS 2251 DEB", "group": "cosmos-2251-debris", "lat": 61.38498163504693, "lon": -99.46065077147458, "alt_km": 731.312373838935, "timestamp": "2025-12-24T09:46:31.400141+00:00", "meta": {"OBJECT_NAME": "COSMOS 2251 DEB", "OBJECT_ID": "1993-036AAW", "EPOCH": "2025-12-24T01:49:23.229984", "MEAN_MOTION": 14.38661488, "ECCENTRICITY": 0.0050798, "INCLINATION": 74.0018, "RA_OF_ASC_NODE": 229.4239, "ARG_OF_PERICENTER": 20.661, "MEAN_ANOMALY": 129.5216, "EPHEMERIS_TYPE": 0, "CLASSIFICATION_TYPE": "U", "NORAD_CAT_ID": 34793, "ELEMENT_SET_NO": 999, "REV_AT_EPOCH": 87493, "BSTAR": 0.00021451, "MEAN_MOTION_DOT": 6.41e-06, "MEAN_MOTION_DDOT": 0}, "tle": {"line1": "1 34793U 93036AAW 25358.07596331  .00000641  00000+0  21451-3 0  9990", "line2": "2 34793  74.0018 229.4239 0050798  20.6610 129.5216 14.38661488874939"}}, "geometry": {"type": "Point", "coordinates": [-99.46065077147458, 61.38498163504693]}}, {"type": "Feature", "properties": {"norad_id": 34796, "name": "COSMOS 2251 DEB", "group": "cosmos-2251-debris", "lat": -38.9560498602046, "lon": 27.85730401724202, "alt_km": 714.6741504258571, "timestamp": "2025-12-24T09:46:31.400152+00:00", "meta": {"OBJECT_NAME": "COSMOS 2251 DEB", "OBJECT_ID": "1993-036AAZ", "EPOCH": "2025-12-23T23:23:31.265952", "MEAN_MOTION": 14.487386, "ECCENTRICITY": 0.0100282, "INCLINATION": 74.0284, "RA_OF_ASC_NODE": 195.2796, "ARG_OF_PERICENTER": 294.917, "MEAN_ANOMALY": 191.4292, "EPHEMERIS_TYPE": 0, "CLASSIFICATION_TYPE": "U", "NORAD_CAT_ID": 34796, "ELEMENT_SET_NO": 999, "REV_AT_EPOCH": 88190, "BSTAR": 0.00051969, "MEAN_MOTION_DOT": 2.059e-05, "MEAN_MOTION_DDOT": 0}, "tle": {"line1": "1 34796U 93036AAZ 25357.97466743  .00002059  00000+0  51969-3 0  9996", "line2": "2 34796  74.0284 195.2796 0100282 294.9170 191.4292 14.48738600881905"}}, "geometry": {"type": "Point", "coordinates": [27.85730401724202, -38.9560498602046]}}, {"type": "Feature", "properties": {"norad_id": 34797, "name": "COSMOS 2251 DEB", "group": "cosmos-2251-debris", "lat": 70.98942858184913, "lon": -158.2658930257329, "alt_km": 740.5675707665005, "timestamp": "2025-12-24T09:46:31.400162+00:00", "meta": {"OBJECT_NAME": "COSMOS 2251 DEB", "OBJECT_ID": "1993-036ABA", "EPOCH": "2025-12-22T12:22:54.757056", "MEAN_MOTION": 14.42950692, "ECCENTRICITY": 0.00710542, "INCLINATION": 73.9783, "RA_OF_ASC_NODE": 81.7691, "ARG_OF_PERICENTER": 193.6898, "MEAN_ANOMALY": 166.2334, "EPHEMERIS_TYPE": 0, "CLASSIFICATION_TYPE": "U", "NORAD_CAT_ID": 34797, "ELEMENT_SET_NO": 999, "REV_AT_EPOCH": 87556, "BSTAR": 0.0021692417, "MEAN_MOTION_DOT": 7.461e-05, "MEAN_MOTION_DDOT": 0}, "tle": {"line1": "1 34797U 93036ABA 25356.51591154  .00007461  00000+0  21692-2 0  9992", "line2": "2 34797  73.9783  81.7691 0071054 193.6898 166.2334 14.42950692875560"}}, "geometry": {"type": "Point", "coordinates": [-158.2658930257329, 70.98942858184913]}}, {"type": "Feature", "properties": {"norad_id": 34814, "name": "COSMOS 2251 DEB", "group": "cosmos-2251-debris", "lat": -13.05705762554246, "lon": 127.64203761579395, "alt_km": 733.1525961534771, "timestamp": "2025-12-24T09:46:31.400173+00:00", "meta": {"OBJECT_NAME": "COSMOS 2251 DEB", "OBJECT_ID": "1993-036ABD", "EPOCH": "2025-12-23T04:46:16.254336", "MEAN_MOTION": 14.3693492, "ECCENTRICITY": 0.00554769, "INCLINATION": 73.8962, "RA_OF_ASC_NODE": 306.0405, "ARG_OF_PERICENTER": 193.3771, "MEAN_ANOMALY": 230.9861, "EPHEMERIS_TYPE": 0, "CLASSIFICATION_TYPE": "U", "NORAD_CAT_ID": 34814, "ELEMENT_SET_NO": 999, "REV_AT_EPOCH": 87483, "BSTAR": 0.00068608274, "MEAN_MOTION_DOT": 2.041e-05, "MEAN_MOTION_DDOT": 0}, "tle": {"line1": "1 34814U 93036ABD 25357.19879924  .00002041  00000+0  68608-3 0  9999", "line2": "2 34814  73.8962 306.0405 0055476 193.3771 230.9861 14.36934920874833"}}, "geometry": {"type": "Point", "coordinates": [127.64203761579395, -13.05705762554246]}}, {"type": "Feature", "properties": {"norad_id": 34815, "name": "COSMOS 2251 DEB", "group": "cosmos-2251-debris", "lat": -65.82614103631549, "lon": 179.29118529107672, "alt_km": 599.9879697995411, "timestamp": "2025-12-24T09:46:31.400183+00:00", "meta": {"OBJECT_NAME": "COSMOS 2251 DEB", "OBJECT_ID": "1993-036ABE", "EPOCH": "2025-12-24T00:21:06.840864", "MEAN_MOTION": 14.78432618, "ECCENTRICITY": 0.0058756, "INCLINATION": 74.0438, "RA_OF_ASC_NODE": 219.6604, "ARG_OF_PERICENTER": 286.3983, "MEAN_ANOMALY": 73.0739, "EPHEMERIS_TYPE": 0, "CLASSIFICATION_TYPE": "U", "NORAD_CAT_ID": 34815, "ELEMENT_SET_NO": 999, "REV_AT_EPOCH": 88794, "BSTAR": 0.00075826, "MEAN_MOTION_DOT": 5.658e-05, "MEAN_MOTION_DDOT": 0}, "tle": {"line1": "1 34815U 93036ABE 25358.01466251  .00005658  00000+0  75826-3 0  9994", "line2": "2 34815  74.0438 219.6604 0058756 286.3983  73.0739 14.78432618887946"}}, "geometry": {"type": "Point", "coordinates": [179.29118529107672, -65.82614103631549]}}, {"type": "Feature", "properties": {"norad_id": 34816, "name": "COSMOS 2251 DEB", "group": "cosmos-2251-debris", "lat": -61.678626932435726, "lon": -23.479615825590077, "alt_km": 901.6902085533047, "timestamp": "2025-12-24T09:46:31.400193+00:00", "meta": {"OBJECT_NAME": "COSMOS 2251 DEB", "OBJECT_ID": "1993-036ABF", "EPOCH": "2025-12-23T09:55:18.528096", "MEAN_MOTION": 13.58351996, "ECCENTRICITY": 0.0373037, "INCLINATION": 73.8873, "RA_OF_ASC_NODE": 125.7065, "ARG_OF_PERICENTER": 188.3385, "MEAN_ANOMALY": 235.9285, "EPHEMERIS_TYPE": 0, "CLASSIFICATION_TYPE": "U", "NORAD_CAT_ID": 34816, "ELEMENT_SET_NO": 999, "REV_AT_EPOCH": 82928, "BSTAR": 0.001264731, "MEAN_MOTION_DOT": 1.426e-05, "MEAN_MOTION_DDOT": 0}, "tle": {"line1": "1 34816U 93036ABF 25357.41340889  .00001426  00000+0  12647-2 0  9996", "line2": "2 34816  73.8873 125.7065 0373037 188.3385 235.9285 13.58351996829288"}}, "geometry": {"type": "Point", "coordinates": [-23.479615825590077, -61.678626932435726]}}, {"type": "Feature", "properties": {"norad_id": 34818, "name": "COSMOS 2251 DEB", "group": "cosmos-2251-debris", "lat": -73.73138999615752, "lon": 174.26432268401703, "alt_km": 772.8422029708545, "timestamp": "2025-12-24T09:46:31.400204+00:00", "meta": {"OBJECT_NAME": "COSMOS 2251 DEB", "OBJECT_ID": "1993-036ABH", "EPOCH": "2025-12-22T05:26:11.246784", "MEAN_MOTION": 14.36978109, "ECCENTRICITY": 0.00245976, "INCLINATION": 74.0363, "RA_OF_ASC_NODE": 279.4958, "ARG_OF_PERICENTER": 353.0026, "MEAN_ANOMALY": 157.1903, "EPHEMERIS_TYPE": 0, "CLASSIFICATION_TYPE": "U", "NORAD_CAT_ID": 34818, "ELEMENT_SET_NO": 999, "REV_AT_EPOCH": 87506, "BSTAR": 0.00018981942, "MEAN_MOTION_DOT": 5.38e-06, "MEAN_MOTION_DDOT": 0}, "tle": {"line1": "1 34818U 93036ABH 25356.22651906  .00000538  00000+0  18982-3 0  9993", "line2": "2 34818  74.0363 279.4958 0024597 353.0026 157.1903 14.36978109875069"}}, "geometry": {"type": "Point", "coordinates": [174.26432268401703, -73.73138999615752]}}, {"type": "Feature", "properties": {"norad_id": 34819, "name": "COSMOS 2251 DEB", "group": "cosmos-2251-debris", "lat": -57.6200464668878, "lon": -32.90514627629099, "alt_km": 676.8961306123729, "timestamp": "2025-12-24T09:46:31.400214+00:00", "meta": {"OBJECT_NAME": "COSMOS 2251 DEB", "OBJECT_ID": "1993-036ABJ", "EPOCH": "2025-12-23T09:58:58.848096", "MEAN_MOTION": 14.64120016, "ECCENTRICITY": 0.00153548, "INCLINATION": 74.0191, "RA_OF_ASC_NODE": 122.1333, "ARG_OF_PERICENTER": 216.9697, "MEAN_ANOMALY": 201.2443, "EPHEMERIS_TYPE": 0, "CLASSIFICATION_TYPE": "U", "NORAD_CAT_ID": 34819, "ELEMENT_SET_NO": 999, "REV_AT_EPOCH": 88385, "BSTAR": 0.0015775241, "MEAN_MOTION_DOT": 8.283e-05, "MEAN_MOTION_DDOT": 0}, "tle": {"line1": "1 34819U 93036ABJ 25357.41595889  .00008283  00000+0  15775-2 0  9994", "line2": "2 34819  74.0191 122.1333 0015354 216.9697 201.2443 14.64120016883855"}}, "geometry": {"type": "Point", "coordinates": [-32.90514627629099, -57.6200464668878]}}, {"type": "Feature", "properties": {"norad_id": 34823, "name": "COSMOS 2251 DEB", "group": "cosmos-2251-debris", "lat": -73.99487365640007, "lon": -13.804135735931547, "alt_km": 746.4260122107635, "timestamp": "2025-12-24T09:46:31.400225+00:00", "meta": {"OBJECT_NAME": "COSMOS 2251 DEB", "OBJECT_ID": "1993-036ABN", "EPOCH": "2025-12-22T23:32:59.618976", "MEAN_MOTION": 14.54990022, "ECCENTRICITY": 0.01539908, "INCLINATION": 74.0418, "RA_OF_ASC_NODE": 82.8922, "ARG_OF_PERICENTER": 165.1039, "MEAN_ANOMALY": 195.4739, "EPHEMERIS_TYPE": 0, "CLASSIFICATION_TYPE": "U", "NORAD_CAT_ID": 34823, "ELEMENT_SET_NO": 999, "REV_AT_EPOCH": 88530, "BSTAR": 0.00056765995, "MEAN_MOTION_DOT": 2.835e-05, "MEAN_MOTION_DDOT": 0}, "tle": {"line1": "1 34823U 93036ABN 25356.98124559  .00002835  00000+0  56766-3 0  9995", "line2": "2 34823  74.0418  82.8922 0153990 165.1039 195.4739 14.54990022885307"}}, "geometry": {"type": "Point", "coordinates": [-13.804135735931547, -73.99487365640007]}}]}